[{"OBJECT_NAME":"STARLINK-30361","OBJECT_ID":"2023-131M","EPOCH":"2026-03-09T22:00:01.999584","MEAN_MOTION":15.12419132,"ECCENTRICITY":0.0001562,"INCLINATION":42.9992,"RA_OF_ASC_NODE":170.2609,"ARG_OF_PERICENTER":271.7692,"MEAN_ANOMALY":21.2571,"EPHEMERIS_TYPE":0,"CLASSIFICATION_TYPE":"U","NORAD_CAT_ID":57743,"ELEMENT_SET_NO":999,"REV_AT_EPOCH":578,"BSTAR":0.070351527,"MEAN_MOTION_DOT":0.01353414,"MEAN_MOTION_DDOT":0},{"OBJECT_NAME":"OBJECT A","OBJECT_ID":"2025-226A","EPOCH":"2026-03-09T23:47:47.685696","MEAN_MOTION":15.14747363,"ECCENTRICITY":0.00155421,"INCLINATION":97.6484,"RA_OF_ASC_NODE":148.8014,"ARG_OF_PERICENTER":127.7306,"MEAN_ANOMALY":232.5337,"EPHEMERIS_TYPE":0,"CLASSIFICATION_TYPE":"U","NORAD_CAT_ID":65938,"ELEMENT_SET_NO":999,"REV_AT_EPOCH":2267,"BSTAR":0.00057458801,"MEAN_MOTION_DOT":0.00010623,"MEAN_MOTION_DDOT":0}]
